[{"OBJECT_NAME":"TEVEL2-1","OBJECT_ID":"2025-052H","EPOCH":"2026-03-09T15:32:51.927072","MEAN_MOTION":15.30341923,"ECCENTRICITY":0.0004767,"INCLINATION":97.3991,"RA_OF_ASC_NODE":324.7682,"ARG_OF_PERICENTER":104.8919,"MEAN_ANOMALY":255.2849,"EPHEMERIS_TYPE":0,"CLASSIFICATION_TYPE":"U","NORAD_CAT_ID":63217,"ELEMENT_SET_NO":999,"REV_AT_EPOCH":5485,"BSTAR":0.000706,"MEAN_MOTION_DOT":0.00020683,"MEAN_MOTION_DDOT":0},{"OBJECT_NAME":"STARLINK-35605","OBJECT_ID":"2025-240E","EPOCH":"2026-03-09T23:37:04.095552","MEAN_MOTION":15.30213347,"ECCENTRICITY":0.00015837,"INCLINATION":53.1602,"RA_OF_ASC_NODE":61.4355,"ARG_OF_PERICENTER":102.5589,"MEAN_ANOMALY":257.5589,"EPHEMERIS_TYPE":0,"CLASSIFICATION_TYPE":"U","NORAD_CAT_ID":66150,"ELEMENT_SET_NO":999,"REV_AT_EPOCH":2203,"BSTAR":0.0011794959,"MEAN_MOTION_DOT":0.00034752,"MEAN_MOTION_DDOT":0}]
